{
    "links": {
        "self": "http://www.neowsapp.com/rest/v1/neo/3789617?api_key=iIulBulltgU6a56xZRHN4H3l9WmuAYTsLGpBGhQ2"
    },
    "id": "3789617",
    "neo_reference_id": "3789617",
    "name": "(2017 WD13)",
    "designation": "2017 WD13",
    "nasa_jpl_url": "http://ssd.jpl.nasa.gov/sbdb.cgi?sstr=3789617",
    "absolute_magnitude_h": 24.4,
    "estimated_diameter": {
        "kilometers": {
            "estimated_diameter_min": 0.0350392641,
            "estimated_diameter_max": 0.0783501764
        },
        "meters": {
            "estimated_diameter_min": 35.0392641108,
            "estimated_diameter_max": 78.3501764334
        },
        "miles": {
            "estimated_diameter_min": 0.0217723826,
            "estimated_diameter_max": 0.0486845275
        },
        "feet": {
            "estimated_diameter_min": 114.9582192654,
            "estimated_diameter_max": 257.0543928497
        }
    },
    "is_potentially_hazardous_asteroid": false,
    "close_approach_data": [
        {
            "close_approach_date": "2017-11-10",
            "close_approach_date_full": "2017-Nov-10 09:09",
            "epoch_date_close_approach": 1510304940000,
            "relative_velocity": {
                "kilometers_per_second": "21.247800185",
                "kilometers_per_hour": "76492.0806659053",
                "miles_per_hour": "47529.2042337677"
            },
            "miss_distance": {
                "astronomical": "0.0316660048",
                "lunar": "12.3180758672",
                "kilometers": "4737166.869489776",
                "miles": "2943538.9989838688"
            },
            "orbiting_body": "Earth"
        }
    ],
    "orbital_data": {
        "orbit_id": "2",
        "orbit_determination_date": "2017-12-16 06:46:43",
        "first_observation_date": "2017-11-21",
        "last_observation_date": "2017-11-24",
        "data_arc_in_days": 3,
        "observations_used": 19,
        "orbit_uncertainty": "9",
        "minimum_orbit_intersection": ".0033099",
        "jupiter_tisserand_invariant": "3.426",
        "epoch_osculation": "2458079.5",
        "eccentricity": ".6943257343584821",
        "semi_major_axis": "2.065181161902921",
        "inclination": ".6818654911722407",
        "ascending_node_longitude": "209.5474042019832",
        "orbital_period": "1084.015917021203",
        "perihelion_distance": ".6312727350813719",
        "perihelion_argument": "113.0914959883338",
        "aphelion_distance": "3.49908958872447",
        "perihelion_time": "2458022.297668663361",
        "mean_anomaly": "18.99680526627105",
        "mean_motion": ".3320984446328554",
        "equinox": "J2000",
        "orbit_class": {
            "orbit_class_type": "APO",
            "orbit_class_description": "Near-Earth asteroid orbits which cross the Earth’s orbit similar to that of 1862 Apollo",
            "orbit_class_range": "a (semi-major axis) > 1.0 AU; q (perihelion) < 1.017 AU"
        }
    },
    "is_sentry_object": false
}